{"type": "FeatureCollection", "features": [ {"type": "Feature", "properties": {"norad_id": 38552, "name": "METEOSAT-10 (MSG-3)", "group": "weather", "lat": -3.9093976572031117, "lon": -50.206689868193145, "alt_km": 35783.628748494324, "timestamp": "2025-12-03T15:48:02.748184+00:00", "meta": {"OBJECT_NAME": "METEOSAT-10 (MSG-3)", "OBJECT_ID": "2012-035B", "EPOCH": "2025-12-03T01:46:14.361312", "MEAN_MOTION": 1.00272334, "ECCENTRICITY": 7.5e-05, "INCLINATION": 4.2044, "RA_OF_ASC_NODE": 61.7366, "ARG_OF_PERICENTER": 219.9554, "MEAN_ANOMALY": 177.1386, "EPHEMERIS_TYPE": 0, "CLASSIFICATION_TYPE": "U", "NORAD_CAT_ID": 38552, "ELEMENT_SET_NO": 999, "REV_AT_EPOCH": 4889, "BSTAR": 0, "MEAN_MOTION_DOT": 1.1e-07, "MEAN_MOTION_DDOT": 0}, "tle": {"line1": "1 38552U 12035B   25337.07377733  .00000011  00000+0  00000+0 0  9991", "line2": "2 38552   4.2044  61.7366 0000750 219.9554 177.1386  1.00272334 48899"}}, "geometry": {"type": "Point", "coordinates": [-50.206689868193145, -3.9093976572031117]}}, {"type": "Feature", "properties": {"norad_id": 38771, "name": "METOP-B", "group": "weather", "lat": 79.48835314578402, "lon": -27.65800665445417, "alt_km": 812.924887615718, "timestamp": "2025-12-03T15:48:02.748194+00:00", "meta": {"OBJECT_NAME": "METOP-B", "OBJECT_ID": "2012-049A", "EPOCH": "2025-12-03T06:57:34.414560", "MEAN_MOTION": 14.21402654, "ECCENTRICITY": 0.00024881, "INCLINATION": 98.6813, "RA_OF_ASC_NODE": 27.4084, "ARG_OF_PERICENTER": 165.6251, "MEAN_ANOMALY": 194.4998, "EPHEMERIS_TYPE": 0, "CLASSIFICATION_TYPE": "U", "NORAD_CAT_ID": 38771, "ELEMENT_SET_NO": 999, "REV_AT_EPOCH": 68543, "BSTAR": 0.00012638104, "MEAN_MOTION_DOT": 2.32e-06, "MEAN_MOTION_DDOT": 0}, "tle": {"line1": "1 38771U 12049A   25337.28998165  .00000232  00000+0  12638-3 0  9999", "line2": "2 38771  98.6813  27.4084 0002488 165.6251 194.4998 14.21402654685435"}}, "geometry": {"type": "Point", "coordinates": [-27.65800665445417, 79.48835314578402]}}, {"type": "Feature", "properties": {"norad_id": 39216, "name": "INSAT-3D", "group": "weather", "lat": -0.12114556251953101, "lon": 79.24661588355562, "alt_km": 35792.529930655866, "timestamp": "2025-12-03T15:48:02.748205+00:00", "meta": {"OBJECT_NAME": "INSAT-3D", "OBJECT_ID": "2013-038B", "EPOCH": "2025-12-03T07:31:19.049952", "MEAN_MOTION": 1.00273873, "ECCENTRICITY": 0.00017457, "INCLINATION": 1.4184, "RA_OF_ASC_NODE": 85.0997, "ARG_OF_PERICENTER": 154.406, "MEAN_ANOMALY": 75.2445, "EPHEMERIS_TYPE": 0, "CLASSIFICATION_TYPE": "U", "NORAD_CAT_ID": 39216, "ELEMENT_SET_NO": 999, "REV_AT_EPOCH": 4511, "BSTAR": 0, "MEAN_MOTION_DOT": -3.2e-06, "MEAN_MOTION_DDOT": 0}, "tle": {"line1": "1 39216U 13038B   25337.31341493 -.00000320  00000+0  00000+0 0  9998", "line2": "2 39216   1.4184  85.0997 0001745 154.4060  75.2445  1.00273873 45115"}}, "geometry": {"type": "Point", "coordinates": [79.24661588355562, -0.12114556251953101]}}, {"type": "Feature", "properties": {"norad_id": 39260, "name": "FENGYUN 3C", "group": "weather", "lat": 22.039815531586857, "lon": 139.242282952944, "alt_km": 835.5375242059281, "timestamp": "2025-12-03T15:48:02.748215+00:00", "meta": {"OBJECT_NAME": "FENGYUN 3C", "OBJECT_ID": "2013-052A", "EPOCH": "2025-12-03T08:16:21.258336", "MEAN_MOTION": 14.15691596, "ECCENTRICITY": 0.00138225, "INCLINATION": 98.4754, "RA_OF_ASC_NODE": 315.4833, "ARG_OF_PERICENTER": 224.3003, "MEAN_ANOMALY": 135.7066, "EPHEMERIS_TYPE": 0, "CLASSIFICATION_TYPE": "U", "NORAD_CAT_ID": 39260, "ELEMENT_SET_NO": 999, "REV_AT_EPOCH": 63085, "BSTAR": 0.00011962581, "MEAN_MOTION_DOT": 1.93e-06, "MEAN_MOTION_DDOT": 0}, "tle": {"line1": "1 39260U 13052A   25337.34469049  .00000193  00000+0  11963-3 0  9995", "line2": "2 39260  98.4754 315.4833 0013822 224.3003 135.7066 14.15691596630853"}}, "geometry": {"type": "Point", "coordinates": [139.242282952944, 22.039815531586857]}}, {"type": "Feature", "properties": {"norad_id": 40069, "name": "METEOR-M 2", "group": "weather", "lat": -46.06485433599615, "lon": -35.49094532008934, "alt_km": 826.4298999449938, "timestamp": "2025-12-03T15:48:02.748225+00:00", "meta": {"OBJECT_NAME": "METEOR-M 2", "OBJECT_ID": "2014-037A", "EPOCH": "2025-12-03T07:34:22.553184", "MEAN_MOTION": 14.21380608, "ECCENTRICITY": 0.00047009, "INCLINATION": 98.4893, "RA_OF_ASC_NODE": 315.2619, "ARG_OF_PERICENTER": 241.2646, "MEAN_ANOMALY": 118.806, "EPHEMERIS_TYPE": 0, "CLASSIFICATION_TYPE": "U", "NORAD_CAT_ID": 40069, "ELEMENT_SET_NO": 999, "REV_AT_EPOCH": 59149, "BSTAR": 0.00012934922, "MEAN_MOTION_DOT": 2.4e-06, "MEAN_MOTION_DDOT": 0}, "tle": {"line1": "1 40069U 14037A   25337.31553881  .00000240  00000+0  12935-3 0  9996", "line2": "2 40069  98.4893 315.2619 0004700 241.2646 118.8060 14.21380608591490"}}, "geometry": {"type": "Point", "coordinates": [-35.49094532008934, -46.06485433599615]}}, {"type": "Feature", "properties": {"norad_id": 40267, "name": "HIMAWARI-8", "group": "weather", "lat": 0.013067354329869966, "lon": 90.41509169559909, "alt_km": 35791.64185050433, "timestamp": "2025-12-03T15:48:02.748236+00:00", "meta": {"OBJECT_NAME": "HIMAWARI-8", "OBJECT_ID": "2014-060A", "EPOCH": "2025-12-03T07:34:33.739392", "MEAN_MOTION": 1.00270744, "ECCENTRICITY": 0.00012769, "INCLINATION": 0.0456, "RA_OF_ASC_NODE": 139.4951, "ARG_OF_PERICENTER": 145.0634, "MEAN_ANOMALY": 42.1705, "EPHEMERIS_TYPE": 0, "CLASSIFICATION_TYPE": "U", "NORAD_CAT_ID": 40267, "ELEMENT_SET_NO": 999, "REV_AT_EPOCH": 4079, "BSTAR": 0, "MEAN_MOTION_DOT": -2.56e-06, "MEAN_MOTION_DDOT": 0}, "tle": {"line1": "1 40267U 14060A   25337.31566828 -.00000256  00000+0  00000+0 0  9991", "line2": "2 40267   0.0456 139.4951 0001276 145.0634  42.1705  1.00270744 40791"}}, "geometry": {"type": "Point", "coordinates": [90.41509169559909, 0.013067354329869966]}}, {"type": "Feature", "properties": {"norad_id": 40367, "name": "FENGYUN 2G", "group": "weather", "lat": -2.2043843785112047, "lon": 49.56244544674109, "alt_km": 35797.7168107368, "timestamp": "2025-12-03T15:48:02.748247+00:00", "meta": {"OBJECT_NAME": "FENGYUN 2G", "OBJECT_ID": "2014-090A", "EPOCH": "2025-12-02T19:23:41.667360", "MEAN_MOTION": 1.00267744, "ECCENTRICITY": 0.00030671, "INCLINATION": 5.141, "RA_OF_ASC_NODE": 75.2124, "ARG_OF_PERICENTER": 193.3464, "MEAN_ANOMALY": 193.9973, "EPHEMERIS_TYPE": 0, "CLASSIFICATION_TYPE": "U", "NORAD_CAT_ID": 40367, "ELEMENT_SET_NO": 999, "REV_AT_EPOCH": 4003, "BSTAR": 0, "MEAN_MOTION_DOT": -2.84e-06, "MEAN_MOTION_DDOT": 0}, "tle": {"line1": "1 40367U 14090A   25336.80812115 -.00000284  00000+0  00000+0 0  9992", "line2": "2 40367   5.1410  75.2124 0003067 193.3464 193.9973  1.00267744 40039"}}, "geometry": {"type": "Point", "coordinates": [49.56244544674109, -2.2043843785112047]}}, {"type": "Feature", "properties": {"norad_id": 40732, "name": "METEOSAT-11 (MSG-4)", "group": "weather", "lat": -2.502717832905565, "lon": -40.805299712697405, "alt_km": 35784.58453493581, "timestamp": "2025-12-03T15:48:02.748257+00:00", "meta": {"OBJECT_NAME": "METEOSAT-11 (MSG-4)", "OBJECT_ID": "2015-034A", "EPOCH": "2025-12-03T06:57:10.948320", "MEAN_MOTION": 1.00277761, "ECCENTRICITY": 2.416e-05, "INCLINATION": 2.7119, "RA_OF_ASC_NODE": 72.0251, "ARG_OF_PERICENTER": 163.8795, "MEAN_ANOMALY": 310.2425, "EPHEMERIS_TYPE": 0, "CLASSIFICATION_TYPE": "U", "NORAD_CAT_ID": 40732, "ELEMENT_SET_NO": 999, "REV_AT_EPOCH": 525, "BSTAR": 0, "MEAN_MOTION_DOT": 8.2e-07, "MEAN_MOTION_DDOT": 0}, "tle": {"line1": "1 40732U 15034A   25337.28971005  .00000082  00000+0  00000+0 0  9999", "line2": "2 40732   2.7119  72.0251 0000241 163.8795 310.2425  1.00277761  5251"}}, "geometry": {"type": "Point", "coordinates": [-40.805299712697405, -2.502717832905565]}}, {"type": "Feature", "properties": {"norad_id": 41105, "name": "ELEKTRO-L 2", "group": "weather", "lat": -4.184845662409881, "lon": -64.92911969274624, "alt_km": 35771.90582202005, "timestamp": "2025-12-03T15:48:02.748268+00:00", "meta": {"OBJECT_NAME": "ELEKTRO-L 2", "OBJECT_ID": "2015-074A", "EPOCH": "2025-12-03T01:42:07.255584", "MEAN_MOTION": 1.00269824, "ECCENTRICITY": 0.00039939, "INCLINATION": 6.1994, "RA_OF_ASC_NODE": 72.9411, "ARG_OF_PERICENTER": 197.267, "MEAN_ANOMALY": 172.9677, "EPHEMERIS_TYPE": 0, "CLASSIFICATION_TYPE": "U", "NORAD_CAT_ID": 41105, "ELEMENT_SET_NO": 999, "REV_AT_EPOCH": 3654, "BSTAR": 0, "MEAN_MOTION_DOT": -1.01e-06, "MEAN_MOTION_DDOT": 0}, "tle": {"line1": "1 41105U 15074A   25337.07091731 -.00000101  00000+0  00000+0 0  9997", "line2": "2 41105   6.1994  72.9411 0003993 197.2670 172.9677  1.00269824 36541"}}, "geometry": {"type": "Point", "coordinates": [-64.92911969274624, -4.184845662409881]}}, {"type": "Feature", "properties": {"norad_id": 41752, "name": "INSAT-3DR", "group": "weather", "lat": -0.02919679951726521, "lon": 23.911097732971534, "alt_km": 35812.54479435736, "timestamp": "2025-12-03T15:48:02.748279+00:00", "meta": {"OBJECT_NAME": "INSAT-3DR", "OBJECT_ID": "2016-054A", "EPOCH": "2025-12-03T03:50:06.372672", "MEAN_MOTION": 1.00269574, "ECCENTRICITY": 0.00144494, "INCLINATION": 0.067, "RA_OF_ASC_NODE": 89.2297, "ARG_OF_PERICENTER": 179.798, "MEAN_ANOMALY": 294.785, "EPHEMERIS_TYPE": 0, "CLASSIFICATION_TYPE": "U", "NORAD_CAT_ID": 41752, "ELEMENT_SET_NO": 999, "REV_AT_EPOCH": 3385, "BSTAR": 0, "MEAN_MOTION_DOT": -5.8e-07, "MEAN_MOTION_DDOT": 0}, "tle": {"line1": "1 41752U 16054A   25337.15979598 -.00000058  00000+0  00000+0 0  9990", "line2": "2 41752   0.0670  89.2297 0014449 179.7980 294.7850  1.00269574 33852"}}, "geometry": {"type": "Point", "coordinates": [23.911097732971534, -0.02919679951726521]}}]}